CUTE-1 (CO-55)          
1 27844U 03031E   22058.27018779  .00000154  00000+0  88950-4 0  9993
2 27844  98.6814  67.6095 0010864  64.4019 295.8280 14.22386860968242
CUBESAT XI-IV (CO-57)   
1 27848U 03031J   22058.26958205  .00000128  00000+0  77629-4 0  9995
2 27848  98.6864  68.1484 0010849  76.9908 283.2481 14.21952854968051
CUBESAT XI-V            
1 28895U 05043F   22058.08738250  .00000459  00000+0  96211-4 0  9994
2 28895  98.0877 191.3029 0017782 126.7302 233.5537 14.64110453871490
CUTE-1.7+APD II (CO-65) 
1 32785U 08021C   22058.17953870  .00000907  00000+0  10174-3 0  9994
2 32785  97.6446  32.6460 0011425 235.5685 124.4453 14.89105938750149
AAUSAT-II               
1 32788U 08021F   22058.47807277  .00001790  00000+0  16266-3 0  9998
2 32788  97.5256  47.8254 0012571 127.5434 232.6932 14.96406018752084
DELFI-C3 (DO-64)        
1 32789U 08021G   22058.31853905  .00005330  00000+0  32226-3 0  9999
2 32789  97.3526  88.7600 0010582 353.9805   6.1296 15.11019389755381
SEEDS II (CO-66)        
1 32791U 08021J   22058.47811388  .00001704  00000+0  17345-3 0  9994
2 32791  97.6006  38.5570 0012530 189.6757 170.4223 14.91960253750870
SWISSCUBE               
1 35932U 09051B   22058.13717071  .00000323  00000+0  83218-4 0  9994
2 35932  98.5821 270.9142 0008197  33.4171 326.7542 14.56699804660076
BEESAT-1                
1 35933U 09051C   22058.16295375  .00000322  00000+0  82946-4 0  9992
2 35933  98.5767 272.6401 0006590  46.7786 313.3961 14.56737509660192
ITUPSAT1                
1 35935U 09051E   22058.31963002  .00000295  00000+0  78292-4 0  9998
2 35935  98.5870 272.8845 0008911  46.5608 313.6329 14.55859035659886
TISAT 1                 
1 36799U 10035E   22058.10591575  .00001405  00000+0  14354-3 0  9992
2 36799  98.1936 264.1712 0013168  97.3303 262.9412 14.92276911631502
M-CUBED & EXP-1 PRIME   
1 37855U 11061F   22058.37757582  .00005395  00000+0  25303-3 0  9995
2 37855 101.7125 119.6318 0160527  31.4745 329.5953 15.09795481565080
AEROCUBE 4.5A           
1 38767U 12048K   22057.56021587  .00003307  00000+0  24179-3 0  9994
2 38767  64.6656  98.8293 0176998 292.7472  65.5020 14.93795941134219
AEROCUBE 4.5B           
1 38768U 12048L   22058.37633330  .00005512  00000+0  36050-3 0  9991
2 38768  64.6666  53.2276 0166554 287.7568  70.5431 14.98101725134650
STRAND-1                
1 39090U 13009E   22057.80342478  .00000132  00000+0  61200-4 0  9994
2 39090  98.4110 258.7756 0008111 237.3862 122.6541 14.35247822471526
BRITE-AUSTRIA           
1 39091U 13009F   22057.78666920  .00000067  00000+0  38293-4 0  9996
2 39091  98.4120 257.9154 0009421 245.3950 114.6254 14.35232038471551
SOMP                    
1 39134U 13015E   22058.13005187  .00007226  00000+0  29114-3 0  9998
2 39134  64.8628  63.0225 0030839 298.3902  61.4120 15.25168526490390
BEESAT-3                
1 39135U 13015F   22058.44071661  .00005671  00000+0  25755-3 0  9992
2 39135  64.8665  95.6822 0031891 308.4179  51.4086 15.21350659489792
BEESAT-2                
1 39136U 13015G   22057.56933412  .00004917  00000+0  23222-3 0  9995
2 39136  64.8754 106.0438 0011156 275.1058  84.8797 15.20561690489045
NEE-01 PEGASO           
1 39151U 13018B   22058.23188099  .00000711  00000+0  99408-4 0  9991
2 39151  97.9834 164.3671 0015713 251.0199 108.9310 14.80609585477379
ESTCUBE 1               
1 39161U 13021C   22058.15925800  .00000619  00000+0  10461-3 0  9994
2 39161  97.9175 138.2508 0010717  58.7567 301.4695 14.72697602473232
POPACS 1                
1 39268U 13055D   22057.81161770  .00009504  00000+0  24699-3 0  9999
2 39268  81.0009 358.1880 0585666 173.7197 187.1783 14.46978266437284
POPACS 2                
1 39269U 13055E   22057.67616044  .00008591  00000+0  24166-3 0  9997
2 39269  81.0115  51.9531 0655148 313.2703  41.5544 14.30748203434331
POPACS 3                
1 39270U 13055F   22057.76540263  .00004665  00000+0  14107-3 0  9990
2 39270  81.0121  82.8105 0696678  40.8033 324.3208 14.20241672412918
ZACUBE-1 (TSHEPISOSAT)  
1 39417U 13066B   22057.91634572  .00001109  00000+0  14239-3 0  9995
2 39417  97.6239  34.5224 0059482  48.0543 312.5718 14.81874290446751
WNISAT-1                
1 39423U 13066H   22058.41897115  .00000256  00000+0  59500-4 0  9995
2 39423  97.7701 307.9098 0175656 121.2262 240.6290 14.53349293438467
TRITON-1                
1 39427U 13066M   22058.37913230  .00000730  00000+0  12290-3 0  9992
2 39427  97.8044 359.0584 0111189 256.3604 102.5201 14.68575483442811
DELFI-N3XT              
1 39428U 13066N   22057.82781116  .00001449  00000+0  23338-3 0  9991
2 39428  97.8065 357.0550 0117221 271.5992  87.1790 14.68549671442291
GOMX-1                  
1 39430U 13066Q   22058.32274627  .00000924  00000+0  17351-3 0  9999
2 39430  97.8153 331.8006 0150954  32.4367 328.6008 14.59877563440228
CUBEBUG-2 (LO-74)       
1 39440U 13066AA  22057.87893512  .00000711  00000+0  10368-3 0  9994
2 39440  97.7125  20.2094 0080498 129.4572 231.3797 14.76574914443965
NEE-02 KRYSAOR          
1 39441U 13066AB  22057.85837203  .00000544  00000+0  83089-4 0  9993
2 39441  97.7231  17.4307 0081954 142.1446 218.5567 14.75424630443723
FUNCUBE-1 (AO-73)       
1 39444U 13066AE  22057.94240186  .00001389  00000+0  17288-3 0  9999
2 39444  97.6127  36.9418 0058257  37.1489 323.3735 14.82858267445738
UWE-3                   
1 39446U 13066AG  22058.42965685  .00001034  00000+0  14051-3 0  9995
2 39446  97.6717  27.3719 0070804  88.0534 272.8785 14.79120888444785
AEROCUBE 5A             
1 39465U 13072D   22058.15564383  .00022013  00000+0  14341-2 0  9994
2 39465 120.4939 262.8594 0224192 160.5483 200.4291 14.89624939133156
AEROCUBE 5B             
1 39466U 13072E   22058.04885872  .00022369  00000+0  11171-2 0  9994
2 39466 120.4639 338.0238 0178555 175.4862 184.7855 15.04662053134059
BRITE-CA1 (TORONTO)     
1 40020U 14033L   22058.46387585  .00000396  00000+0  75714-4 0  9995
2 40020  97.7625 223.1202 0085809 254.0744 105.0993 14.66869566411642
DUCHIFAT-1              
1 40021U 14033M   22057.84862110  .00002086  00000+0  21128-3 0  9996
2 40021  98.0003   6.2030 0013870  49.9900 310.2533 14.92003680418205
NANOSATC-BR1            
1 40024U 14033Q   22057.84062330  .00001820  00000+0  18975-3 0  9996
2 40024  97.9756   0.1230 0013374  55.6505 304.5976 14.90995173417492
QB50P1                  
1 40025U 14033R   22057.80130760  .00001307  00000+0  14160-3 0  9998
2 40025  97.9524 354.4526 0013727  64.4752 295.7883 14.89901739417281
QB50P2                  
1 40032U 14033Y   22057.78610839  .00001217  00000+0  13404-3 0  9993
2 40032  97.9319 350.2160 0013114  62.4684 297.7864 14.89378466417142
PERSEUS-M2              
1 40037U 14033AD  22058.35213699  .00000516  00000+0  63953-4 0  9991
2 40037  97.8956 341.2271 0015786  80.2230 280.0768 14.86863965417269
PERSEUS-M1              
1 40039U 14033AF  22057.77971890  .00000486  00000+0  61033-4 0  9995
2 40039  97.8870 338.6155 0015632  80.9189 279.3795 14.86479980416560
POLYITAN-1              
1 40042U 14033AJ  22057.81262823  .00001613  00000+0  17373-3 0  9993
2 40042  97.9625 355.5181 0015904  56.2466 304.0263 14.89805935417176
TIGRISAT                
1 40043U 14033AK  22058.11785365  .00000570  00000+0  90028-4 0  9999
2 40043  97.6584 253.3233 0060124 152.6974 207.7418 14.74757858413665
AEROCUBE 6A             
1 40045U 14033AM  22058.12225185  .00000657  00000+0  99636-4 0  9991
2 40045  97.6742 261.6942 0057844 141.4303 219.1062 14.76124215413747
AEROCUBE 6B             
1 40046U 14033AN  22058.11645696  .00000993  00000+0  14662-3 0  9992
2 40046  97.6645 260.2387 0057134 139.8499 220.6954 14.76260409413885
UKUBE-1                 
1 40074U 14037F   22058.26364342  .00001074  00000+0  13312-3 0  9991
2 40074  98.3983 293.0996 0003464 295.0962  64.9884 14.84941787413713
BRITE-PL2 (HEWELIUSZ)   
1 40119U 14049B   22058.24226994  .00000564  00000+0  72628-4 0  9991
2 40119  97.8818 155.0538 0016170 240.6172 119.3428 14.84860133407740
FIREBIRD 4              
1 40378U 15003C   22058.29716176  .00007728  00000+0  25586-3 0  9999
2 40378  99.1141 259.1277 0109464  37.2081 323.6673 15.26045602391618
GRIFEX                  
1 40379U 15003D   22058.45097688  .00006211  00000+0  23490-3 0  9996
2 40379  99.1180 246.3311 0122400  75.3706 286.1058 15.20666981390905
CP10 (EXOCUBE)          
1 40380U 15003E   22058.46880145  .00005359  00000+0  21644-3 0  9998
2 40380  99.1223 239.6909 0128888  97.4182 264.1713 15.17976130390474
TIANWANG 1A (TW-1A)     
1 40928U 15051D   22058.27422843  .00019950  00000+0  33675-3 0  9994
2 40928  97.0545  82.5035 0011000  76.3247 344.1365 15.51600404361113
EXACTVIEW 9             
1 40936U 15052G   22057.43614224  .00001234  00000+0  82555-4 0  9995
2 40936   6.0027 245.7618 0010245  21.4515 338.6042 14.76899383346773
AEROCUBE 5C             
1 40965U 15058B   22058.16755765  .00000809  00000+0  10342-3 0  9991
2 40965  64.7762  65.9247 0204959 234.4160 123.7694 14.75183261132691
AEROCUBE 7              
1 40966U 15058C   22058.33906016  .00001165  00000+0  13965-3 0  9998
2 40966  64.7763  62.8613 0203323 234.0440 124.1658 14.75637641132733
ATHENOXAT 1             
1 41168U 15077C   22058.01507088  .00008423  00000+0  36735-3 0  9999
2 41168  14.9875 187.0535 0010214 128.1989  17.7476 15.17926962343483
GALASSIA                
1 41170U 15077E   22057.68981403  .00007143  00000+0  30677-3 0  9998
2 41170  14.9876 179.8344 0011515 154.0363 206.0537 15.17865002343357
VELOX-II                
1 41171U 15077F   22057.89791373  .00004393  00000+0  19817-3 0  9994
2 41171  14.9901 246.2079 0008436   7.9783 352.0672 15.13954358342889
HORYU-4                 
1 41340U 16012D   22058.12267901  .00001766  00000+0  12312-3 0  9998
2 41340  31.0056 343.2987 0013648 184.5417 175.5096 15.02520838331113
